{
  "type": "FeatureCollection",
  "features": [
    {
      "type": "Feature",
      "properties": {
        "norad_id": 31036,
        "name": "FENGYUN 1C DEB",
        "group": "fengyun-1c-debris",
        "lat": -10.93491224461589,
        "lon": 101.19100778516402,
        "alt_km": 752.5520065056353,
        "timestamp": "2025-12-18T15:47:11.503532+00:00",
        "meta_object_name": "FENGYUN 1C DEB",
        "meta_object_id": "1999-025BEE",
        "meta_epoch": "2025-12-18T06:02:23.919072",
        "meta_mean_motion": 14.49084458,
        "meta_eccentricity": 0.01375082,
        "meta_inclination": 98.9148,
        "meta_ra_of_asc_node": 99.0243,
        "meta_arg_of_pericenter": 247.8939,
        "meta_mean_anomaly": 142.2947,
        "meta_ephemeris_type": 0,
        "meta_classification_type": "U",
        "meta_norad_cat_id": 31036,
        "meta_element_set_no": 999,
        "meta_rev_at_epoch": 57387,
        "meta_bstar": 0.00021841941,
        "meta_mean_motion_dot": 8.77e-06,
        "meta_mean_motion_ddot": 0,
        "tle_line1": "1 31036U 99025BEE 25352.25166573  .00000877  00000+0  21842-3 0  9991",
        "tle_line2": "2 31036  98.9148  99.0243 0137508 247.8939 142.2947 14.49084458573873"
      },
      "geometry": {
        "type": "Point",
        "coordinates": [
          101.19100778516402,
          -10.93491224461589
        ]
      }
    },
    {
      "type": "Feature",
      "properties": {
        "norad_id": 31038,
        "name": "FENGYUN 1C DEB",
        "group": "fengyun-1c-debris",
        "lat": 73.94232438897917,
        "lon": 43.57465542599664,
        "alt_km": 773.6783075258809,
        "timestamp": "2025-12-18T15:47:11.503542+00:00",
        "meta_object_name": "FENGYUN 1C DEB",
        "meta_object_id": "1999-025BEG",
        "meta_epoch": "2025-12-17T16:10:31.099584",
        "meta_mean_motion": 14.45844316,
        "meta_eccentricity": 0.0084304,
        "meta_inclination": 99.014,
        "meta_ra_of_asc_node": 75.9992,
        "meta_arg_of_pericenter": 213.7595,
        "meta_mean_anomaly": 145.821,
        "meta_ephemeris_type": 0,
        "meta_classification_type": "U",
        "meta_norad_cat_id": 31038,
        "meta_element_set_no": 999,
        "meta_rev_at_epoch": 98306,
        "meta_bstar": 0.00045261885,
        "meta_mean_motion_dot": 1.626e-05,
        "meta_mean_motion_ddot": 0,
        "tle_line1": "1 31038U 99025BEG 25351.67397106  .00001626  00000+0  45262-3 0  9991",
        "tle_line2": "2 31038  99.0140  75.9992 0084304 213.7595 145.8210 14.45844316983069"
      },
      "geometry": {
        "type": "Point",
        "coordinates": [
          43.57465542599664,
          73.94232438897917
        ]
      }
    },
    {
      "type": "Feature",
      "properties": {
        "norad_id": 31040,
        "name": "FENGYUN 1C DEB",
        "group": "fengyun-1c-debris",
        "lat": -34.809071594298885,
        "lon": 156.2750852336578,
        "alt_km": 803.8008038895068,
        "timestamp": "2025-12-18T15:47:11.503552+00:00",
        "meta_object_name": "FENGYUN 1C DEB",
        "meta_object_id": "1999-025BEJ",
        "meta_epoch": "2025-12-18T04:53:53.053728",
        "meta_mean_motion": 14.17678679,
        "meta_eccentricity": 0.00625718,
        "meta_inclination": 98.6581,
        "meta_ra_of_asc_node": 341.914,
        "meta_arg_of_pericenter": 178.3319,
        "meta_mean_anomaly": 242.2484,
        "meta_ephemeris_type": 0,
        "meta_classification_type": "U",
        "meta_norad_cat_id": 31040,
        "meta_element_set_no": 999,
        "meta_rev_at_epoch": 96784,
        "meta_bstar": 0.00025034277,
        "meta_mean_motion_dot": 4.77e-06,
        "meta_mean_motion_ddot": 0,
        "tle_line1": "1 31040U 99025BEJ 25352.20408627  .00000477  00000+0  25034-3 0  9993",
        "tle_line2": "2 31040  98.6581 341.9140 0062571 178.3319 242.2484 14.17678679967848"
      },
      "geometry": {
        "type": "Point",
        "coordinates": [
          156.2750852336578,
          -34.809071594298885
        ]
      }
    },
    {
      "type": "Feature",
      "properties": {
        "norad_id": 31041,
        "name": "FENGYUN 1C DEB",
        "group": "fengyun-1c-debris",
        "lat": 78.2277247764792,
        "lon": -107.39907463232102,
        "alt_km": 881.4479086438305,
        "timestamp": "2025-12-18T15:47:11.503562+00:00",
        "meta_object_name": "FENGYUN 1C DEB",
        "meta_object_id": "1999-025BEK",
        "meta_epoch": "2025-12-17T07:08:56.502816",
        "meta_mean_motion": 14.17878855,
        "meta_eccentricity": 0.00870718,
        "meta_inclination": 99.2051,
        "meta_ra_of_asc_node": 20.1057,
        "meta_arg_of_pericenter": 307.2564,
        "meta_mean_anomaly": 52.0691,
        "meta_ephemeris_type": 0,
        "meta_classification_type": "U",
        "meta_norad_cat_id": 31041,
        "meta_element_set_no": 999,
        "meta_rev_at_epoch": 95554,
        "meta_bstar": 0.0018164278,
        "meta_mean_motion_dot": 3.806e-05,
        "meta_mean_motion_ddot": 0,
        "tle_line1": "1 31041U 99025BEK 25351.29787619  .00003806  00000+0  18164-2 0  9997",
        "tle_line2": "2 31041  99.2051  20.1057 0087071 307.2564  52.0691 14.17878855955547"
      },
      "geometry": {
        "type": "Point",
        "coordinates": [
          -107.39907463232102,
          78.2277247764792
        ]
      }
    },
    {
      "type": "Feature",
      "properties": {
        "norad_id": 31043,
        "name": "FENGYUN 1C DEB",
        "group": "fengyun-1c-debris",
        "lat": -79.47353619996011,
        "lon": 134.18029219046917,
        "alt_km": 868.388431969549,
        "timestamp": "2025-12-18T15:47:11.503572+00:00",
        "meta_object_name": "FENGYUN 1C DEB",
        "meta_object_id": "1999-025BEM",
        "meta_epoch": "2025-12-18T07:47:27.480768",
        "meta_mean_motion": 14.08438325,
        "meta_eccentricity": 0.00411074,
        "meta_inclination": 98.7641,
        "meta_ra_of_asc_node": 9.9752,
        "meta_arg_of_pericenter": 348.2705,
        "meta_mean_anomaly": 28.0899,
        "meta_ephemeris_type": 0,
        "meta_classification_type": "U",
        "meta_norad_cat_id": 31043,
        "meta_element_set_no": 999,
        "meta_rev_at_epoch": 96066,
        "meta_bstar": 0.00040713799,
        "meta_mean_motion_dot": 6.6e-06,
        "meta_mean_motion_ddot": 0,
        "tle_line1": "1 31043U 99025BEM 25352.32462362  .00000660  00000+0  40714-3 0  9991",
        "tle_line2": "2 31043  98.7641   9.9752 0041107 348.2705  28.0899 14.08438325960663"
      },
      "geometry": {
        "type": "Point",
        "coordinates": [
          134.18029219046917,
          -79.47353619996011
        ]
      }
    },
    {
      "type": "Feature",
      "properties": {
        "norad_id": 31046,
        "name": "FENGYUN 1C DEB",
        "group": "fengyun-1c-debris",
        "lat": -4.150594599986501,
        "lon": -67.79129915680888,
        "alt_km": 688.8152429975871,
        "timestamp": "2025-12-18T15:47:11.503583+00:00",
        "meta_object_name": "FENGYUN 1C DEB",
        "meta_object_id": "1999-025BEQ",
        "meta_epoch": "2025-12-18T00:27:53.949888",
        "meta_mean_motion": 14.64002329,
        "meta_eccentricity": 0.0045755,
        "meta_inclination": 98.9679,
        "meta_ra_of_asc_node": 112.1709,
        "meta_arg_of_pericenter": 86.689,
        "meta_mean_anomaly": 334.1966,
        "meta_ephemeris_type": 0,
        "meta_classification_type": "U",
        "meta_norad_cat_id": 31046,
        "meta_element_set_no": 999,
        "meta_rev_at_epoch": 96720,
        "meta_bstar": 0.0027912089,
        "meta_mean_motion_dot": 0.00014825,
        "meta_mean_motion_ddot": 0,
        "tle_line1": "1 31046U 99025BEQ 25352.01937442  .00014825  00000+0  27912-2 0  9998",
        "tle_line2": "2 31046  98.9679 112.1709 0045755  86.6890 334.1966 14.64002329967205"
      },
      "geometry": {
        "type": "Point",
        "coordinates": [
          -67.79129915680888,
          -4.150594599986501
        ]
      }
    },
    {
      "type": "Feature",
      "properties": {
        "norad_id": 31047,
        "name": "FENGYUN 1C DEB",
        "group": "fengyun-1c-debris",
        "lat": -9.001710850864864,
        "lon": -8.677942036549782,
        "alt_km": 868.677211992207,
        "timestamp": "2025-12-18T15:47:11.503593+00:00",
        "meta_object_name": "FENGYUN 1C DEB",
        "meta_object_id": "1999-025BER",
        "meta_epoch": "2025-12-16T23:19:58.679616",
        "meta_mean_motion": 14.13849323,
        "meta_eccentricity": 0.00259352,
        "meta_inclination": 98.7008,
        "meta_ra_of_asc_node": 348.2917,
        "meta_arg_of_pericenter": 165.8146,
        "meta_mean_anomaly": 250.7611,
        "meta_ephemeris_type": 0,
        "meta_classification_type": "U",
        "meta_norad_cat_id": 31047,
        "meta_element_set_no": 999,
        "meta_rev_at_epoch": 96419,
        "meta_bstar": 0.00037748147,
        "meta_mean_motion_dot": 6.75e-06,
        "meta_mean_motion_ddot": 0,
        "tle_line1": "1 31047U 99025BER 25350.97220694  .00000675  00000+0  37748-3 0  9993",
        "tle_line2": "2 31047  98.7008 348.2917 0025935 165.8146 250.7611 14.13849323964197"
      },
      "geometry": {
        "type": "Point",
        "coordinates": [
          -8.677942036549782,
          -9.001710850864864
        ]
      }
    }
  ]
}